{
  "links" : {
    "next" : "https://api.nasa.gov/neo/rest/v1/feed?start_date=2013-07-23&end_date=2013-07-23&detailed=true&api_key=t0TVs3DtDT2H8Oy2Zy8m2eVrNsAVKAexjcZXUckd",
    "prev" : "https://api.nasa.gov/neo/rest/v1/feed?start_date=2013-07-21&end_date=2013-07-21&detailed=true&api_key=t0TVs3DtDT2H8Oy2Zy8m2eVrNsAVKAexjcZXUckd",
    "self" : "https://api.nasa.gov/neo/rest/v1/feed?start_date=2013-07-22&end_date=2013-07-22&detailed=true&api_key=t0TVs3DtDT2H8Oy2Zy8m2eVrNsAVKAexjcZXUckd"
  },
  "element_count" : 7,
  "near_earth_objects" : {
    "2013-07-22" : [ {
      "links" : {
        "self" : "https://api.nasa.gov/neo/rest/v1/neo/3644816?api_key=t0TVs3DtDT2H8Oy2Zy8m2eVrNsAVKAexjcZXUckd"
      },
      "neo_reference_id" : "3644816",
      "name" : "(2013 NL10)",
      "nasa_jpl_url" : "http://ssd.jpl.nasa.gov/sbdb.cgi?sstr=3644816",
      "absolute_magnitude_h" : 22.8,
      "estimated_diameter" : {
        "kilometers" : {
          "estimated_diameter_min" : 0.0732073989,
          "estimated_diameter_max" : 0.1636967205
        },
        "meters" : {
          "estimated_diameter_min" : 73.2073989347,
          "estimated_diameter_max" : 163.696720474
        },
        "miles" : {
          "estimated_diameter_min" : 0.0454889547,
          "estimated_diameter_max" : 0.1017163949
        },
        "feet" : {
          "estimated_diameter_min" : 240.181762721,
          "estimated_diameter_max" : 537.0627483999
        }
      },
      "is_potentially_hazardous_asteroid" : false,
      "close_approach_data" : [ {
        "close_approach_date" : "2013-07-22",
        "epoch_date_close_approach" : 1374476400000,
        "relative_velocity" : {
          "kilometers_per_second" : "8.6935501952",
          "kilometers_per_hour" : "31296.7807025547",
          "miles_per_hour" : "19446.6024315402"
        },
        "miss_distance" : {
          "astronomical" : "0.1004043298",
          "lunar" : "39.0572853088",
          "kilometers" : "15020274",
          "miles" : "9333166"
        },
        "orbiting_body" : "Earth"
      } ],
      "orbital_data" : {
        "orbit_id" : "17",
        "orbit_determination_date" : "2017-04-06 08:45:25",
        "orbit_uncertainty" : "6",
        "minimum_orbit_intersection" : ".0522968",
        "jupiter_tisserand_invariant" : "3.572",
        "epoch_osculation" : "2458000.5",
        "eccentricity" : ".4919800517720162",
        "semi_major_axis" : "2.098818492451264",
        "inclination" : "8.697636812613222",
        "ascending_node_longitude" : "132.9829070105565",
        "orbital_period" : "1110.607878476124",
        "perihelion_distance" : "1.066241661875026",
        "perihelion_argument" : "182.8679992208235",
        "aphelion_distance" : "3.131395323027502",
        "perihelion_time" : "2457618.835867262821",
        "mean_anomaly" : "123.7152107852064",
        "mean_motion" : ".324146809127592",
        "equinox" : "J2000"
      }
    }, {
      "links" : {
        "self" : "https://api.nasa.gov/neo/rest/v1/neo/3645086?api_key=t0TVs3DtDT2H8Oy2Zy8m2eVrNsAVKAexjcZXUckd"
      },
      "neo_reference_id" : "3645086",
      "name" : "(2013 NE19)",
      "nasa_jpl_url" : "http://ssd.jpl.nasa.gov/sbdb.cgi?sstr=3645086",
      "absolute_magnitude_h" : 23.1,
      "estimated_diameter" : {
        "kilometers" : {
          "estimated_diameter_min" : 0.063760979,
          "estimated_diameter_max" : 0.1425738833
        },
        "meters" : {
          "estimated_diameter_min" : 63.7609789875,
          "estimated_diameter_max" : 142.5738833281
        },
        "miles" : {
          "estimated_diameter_min" : 0.0396192233,
          "estimated_diameter_max" : 0.0885912765
        },
        "feet" : {
          "estimated_diameter_min" : 209.1895703015,
          "estimated_diameter_max" : 467.7620993781
        }
      },
      "is_potentially_hazardous_asteroid" : false,
      "close_approach_data" : [ {
        "close_approach_date" : "2013-07-22",
        "epoch_date_close_approach" : 1374476400000,
        "relative_velocity" : {
          "kilometers_per_second" : "28.5480645637",
          "kilometers_per_hour" : "102773.0324293812",
          "miles_per_hour" : "63859.1656225786"
        },
        "miss_distance" : {
          "astronomical" : "0.0283241389",
          "lunar" : "11.0180902481",
          "kilometers" : "4237231",
          "miles" : "2632893.25"
        },
        "orbiting_body" : "Earth"
      } ],
      "orbital_data" : {
        "orbit_id" : "9",
        "orbit_determination_date" : "2017-04-06 08:45:22",
        "orbit_uncertainty" : "8",
        "minimum_orbit_intersection" : ".0196473",
        "jupiter_tisserand_invariant" : "3.151",
        "epoch_osculation" : "2456489.5",
        "eccentricity" : ".828623725882712",
        "semi_major_axis" : "2.135530923174429",
        "inclination" : "5.374793053298647",
        "ascending_node_longitude" : "289.2237573849508",
        "orbital_period" : "1139.874986749462",
        "perihelion_distance" : ".3659793328758859",
        "perihelion_argument" : "126.2723680690322",
        "aphelion_distance" : "3.905082513472971",
        "perihelion_time" : "2456540.604027426931",
        "mean_anomaly" : "343.8601161640028",
        "mean_motion" : ".3158241071914371",
        "equinox" : "J2000"
      }
    }, {
      "links" : {
        "self" : "https://api.nasa.gov/neo/rest/v1/neo/3397572?api_key=t0TVs3DtDT2H8Oy2Zy8m2eVrNsAVKAexjcZXUckd"
      },
      "neo_reference_id" : "3397572",
      "name" : "(2007 XY9)",
      "nasa_jpl_url" : "http://ssd.jpl.nasa.gov/sbdb.cgi?sstr=3397572",
      "absolute_magnitude_h" : 21.0,
      "estimated_diameter" : {
        "kilometers" : {
          "estimated_diameter_min" : 0.1677084622,
          "estimated_diameter_max" : 0.3750075218
        },
        "meters" : {
          "estimated_diameter_min" : 167.7084621628,
          "estimated_diameter_max" : 375.0075217981
        },
        "miles" : {
          "estimated_diameter_min" : 0.1042091748,
          "estimated_diameter_max" : 0.2330187988
        },
        "feet" : {
          "estimated_diameter_min" : 550.2246310023,
          "estimated_diameter_max" : 1230.3396778159
        }
      },
      "is_potentially_hazardous_asteroid" : true,
      "close_approach_data" : [ {
        "close_approach_date" : "2013-07-22",
        "epoch_date_close_approach" : 1374476400000,
        "relative_velocity" : {
          "kilometers_per_second" : "13.8587859188",
          "kilometers_per_hour" : "49891.6293077646",
          "miles_per_hour" : "31000.7182218163"
        },
        "miss_distance" : {
          "astronomical" : "0.0759106494",
          "lunar" : "29.5292434692",
          "kilometers" : "11356072",
          "miles" : "7056336"
        },
        "orbiting_body" : "Earth"
      } ],
      "orbital_data" : {
        "orbit_id" : "39",
        "orbit_determination_date" : "2017-04-06 09:04:58",
        "orbit_uncertainty" : "0",
        "minimum_orbit_intersection" : ".0104373",
        "jupiter_tisserand_invariant" : "3.523",
        "epoch_osculation" : "2458000.5",
        "eccentricity" : ".6201708117585586",
        "semi_major_axis" : "2.047892535288439",
        "inclination" : "3.338522851083671",
        "ascending_node_longitude" : "234.0748792878197",
        "orbital_period" : "1070.43221616576",
        "perihelion_distance" : ".7778493592843151",
        "perihelion_argument" : "127.2258749204704",
        "aphelion_distance" : "3.317935711292562",
        "perihelion_time" : "2457608.906197546546",
        "mean_anomaly" : "131.6979877420031",
        "mean_motion" : ".3363127478445145",
        "equinox" : "J2000"
      }
    } ]
  }
}